{
    [
        {
            "type": "Feature",
            "properties": {
                "type": "run",
                "uses": [
                    "downhill"
                ],
                "name": "Thunderbolt",
                "ref": null,
                "description": null,
                "difficulty": "advanced",
                "difficultyConvention": "north_america",
                "oneway": true,
                "gladed": null,
                "patrolled": null,
                "lit": true,
                "grooming": "classic",
                "skiAreas": [
                    {
                        "type": "Feature",
                        "properties": {
                            "id": "c39bde5f3f06e67d7196e9f3afdbae89c6ca966b",
                            "name": "Mount Southington Ski Area",
                            "activities": [
                                "downhill"
                            ],
                            "type": "skiArea",
                            "status": "operating"
                        },
                        "geometry": {
                            "type": "Polygon",
                            "coordinates": [
                                [
                                    [
                                        -72.92468970000003,
                                        41.5798423
                                    ],
                                    [
                                        -72.92450740000002,
                                        41.579938700000014
                                    ],
                                    [
                                        -72.9242861,
                                        41.5810932
                                    ],
                                    [
                                        -72.9244027,
                                        41.5819682
                                    ],
                                    [
                                        -72.9249485,
                                        41.583889199999994
                                    ],
                                    [
                                        -72.9261317,
                                        41.5836311
                                    ],
                                    [
                                        -72.9288553,
                                        41.583437499999995
                                    ],
                                    [
                                        -72.933822,
                                        41.583041099999996
                                    ],
                                    [
                                        -72.93361240000003,
                                        41.5789296
                                    ],
                                    [
                                        -72.93182500000003,
                                        41.5790713
                                    ],
                                    [
                                        -72.928843,
                                        41.5793076
                                    ],
                                    [
                                        -72.92468970000003,
                                        41.5798423
                                    ]
                                ]
                            ]
                        }
                    }
                ],
                "status": "operating",
                "sources": [
                    {
                        "type": "openstreetmap",
                        "id": "way/1228350074"
                    }
                ],
                "websites": [],
                "wikidataID": null,
                "places": [
                    {
                        "iso3166_2": "US-CT",
                        "localized": {
                            "en": {
                                "region": "Connecticut",
                                "country": "United States",
                                "locality": null
                            }
                        },
                        "iso3166_1Alpha2": "US"
                    }
                ],
                "elevationProfile": null,
                "id": "2ffe0eef29f2f2c8ddeebdd77dd238c8702cd022"
            },
            "geometry": {
                "type": "Polygon",
                "coordinates": [
                    [
                        [
                            -72.93001450000003,
                            41.58283270000001,
                            135.4
                        ],
                        [
                            -72.9296329,
                            41.5824796,
                            131.3
                        ],
                        [
                            -72.9282704,
                            41.582596,
                            109.5
                        ],
                        [
                            -72.92813629999998,
                            41.58251970000001,
                            106.6
                        ],
                        [
                            -72.9252663,
                            41.58273240000001,
                            62.3
                        ],
                        [
                            -72.92535749999998,
                            41.5831417,
                            61.1
                        ],
                        [
                            -72.92581879999997,
                            41.5831497,
                            62.1
                        ],
                        [
                            -72.9260441,
                            41.58323,
                            64.6
                        ],
                        [
                            -72.9274979,
                            41.583246,
                            97.8
                        ],
                        [
                            -72.92775540000002,
                            41.5831016,
                            98.7
                        ],
                        [
                            -72.9288658,
                            41.583089499999986,
                            122.5
                        ],
                        [
                            -72.9291287,
                            41.58301330000001,
                            127.1
                        ],
                        [
                            -72.92971879999997,
                            41.582909,
                            130.5
                        ],
                        [
                            -72.93001450000003,
                            41.58283270000001,
                            135.4
                        ]
                    ]
                ]
            }
        },
        {
            "type": "Feature",
            "properties": {
                "type": "run",
                "uses": [
                    "downhill"
                ],
                "name": "Avalanche",
                "ref": null,
                "description": null,
                "difficulty": "intermediate",
                "difficultyConvention": "north_america",
                "oneway": true,
                "gladed": null,
                "patrolled": null,
                "lit": true,
                "grooming": "classic",
                "skiAreas": [
                    {
                        "type": "Feature",
                        "properties": {
                            "id": "c39bde5f3f06e67d7196e9f3afdbae89c6ca966b",
                            "name": "Mount Southington Ski Area",
                            "activities": [
                                "downhill"
                            ],
                            "type": "skiArea",
                            "status": "operating"
                        },
                        "geometry": {
                            "type": "Polygon",
                            "coordinates": [
                                [
                                    [
                                        -72.92468970000003,
                                        41.5798423
                                    ],
                                    [
                                        -72.92450740000002,
                                        41.579938700000014
                                    ],
                                    [
                                        -72.9242861,
                                        41.5810932
                                    ],
                                    [
                                        -72.9244027,
                                        41.5819682
                                    ],
                                    [
                                        -72.9249485,
                                        41.583889199999994
                                    ],
                                    [
                                        -72.9261317,
                                        41.5836311
                                    ],
                                    [
                                        -72.9288553,
                                        41.583437499999995
                                    ],
                                    [
                                        -72.933822,
                                        41.583041099999996
                                    ],
                                    [
                                        -72.93361240000003,
                                        41.5789296
                                    ],
                                    [
                                        -72.93182500000003,
                                        41.5790713
                                    ],
                                    [
                                        -72.928843,
                                        41.5793076
                                    ],
                                    [
                                        -72.92468970000003,
                                        41.5798423
                                    ]
                                ]
                            ]
                        }
                    }
                ],
                "status": "operating",
                "sources": [
                    {
                        "type": "openstreetmap",
                        "id": "way/1228350075"
                    }
                ],
                "websites": [],
                "wikidataID": null,
                "places": [
                    {
                        "iso3166_2": "US-CT",
                        "localized": {
                            "en": {
                                "region": "Connecticut",
                                "country": "United States",
                                "locality": null
                            }
                        },
                        "iso3166_1Alpha2": "US"
                    }
                ],
                "elevationProfile": null,
                "id": "19ecc09555d5d1e27bae610a2938c6a980c78027"
            },
            "geometry": {
                "type": "Polygon",
                "coordinates": [
                    [
                        [
                            -72.9300688,
                            41.58215840000001,
                            134.4
                        ],
                        [
                            -72.92970799999998,
                            41.5819098,
                            127.7
                        ],
                        [
                            -72.92904279999998,
                            41.581958,
                            117.9
                        ],
                        [
                            -72.92873549999997,
                            41.5818063,
                            111
                        ],
                        [
                            -72.9252931,
                            41.58217060000001,
                            60.8
                        ],
                        [
                            -72.92547549999998,
                            41.5824154,
                            60.1
                        ],
                        [
                            -72.9298743,
                            41.582218800000014,
                            131
                        ],
                        [
                            -72.9300688,
                            41.58215840000001,
                            134.4
                        ]
                    ]
                ]
            }
        },
        {
            "type": "Feature",
            "properties": {
                "type": "run",
                "uses": [
                    "downhill"
                ],
                "name": "Northstar",
                "ref": null,
                "description": null,
                "difficulty": "novice",
                "difficultyConvention": "north_america",
                "oneway": true,
                "gladed": null,
                "patrolled": null,
                "lit": true,
                "grooming": "classic",
                "skiAreas": [
                    {
                        "type": "Feature",
                        "properties": {
                            "id": "c39bde5f3f06e67d7196e9f3afdbae89c6ca966b",
                            "name": "Mount Southington Ski Area",
                            "activities": [
                                "downhill"
                            ],
                            "type": "skiArea",
                            "status": "operating"
                        },
                        "geometry": {
                            "type": "Polygon",
                            "coordinates": [
                                [
                                    [
                                        -72.92468970000003,
                                        41.5798423
                                    ],
                                    [
                                        -72.92450740000002,
                                        41.579938700000014
                                    ],
                                    [
                                        -72.9242861,
                                        41.5810932
                                    ],
                                    [
                                        -72.9244027,
                                        41.5819682
                                    ],
                                    [
                                        -72.9249485,
                                        41.583889199999994
                                    ],
                                    [
                                        -72.9261317,
                                        41.5836311
                                    ],
                                    [
                                        -72.9288553,
                                        41.583437499999995
                                    ],
                                    [
                                        -72.933822,
                                        41.583041099999996
                                    ],
                                    [
                                        -72.93361240000003,
                                        41.5789296
                                    ],
                                    [
                                        -72.93182500000003,
                                        41.5790713
                                    ],
                                    [
                                        -72.928843,
                                        41.5793076
                                    ],
                                    [
                                        -72.92468970000003,
                                        41.5798423
                                    ]
                                ]
                            ]
                        }
                    }
                ],
                "status": "operating",
                "sources": [
                    {
                        "type": "openstreetmap",
                        "id": "way/1228350076"
                    }
                ],
                "websites": [],
                "wikidataID": null,
                "places": [
                    {
                        "iso3166_2": "US-CT",
                        "localized": {
                            "en": {
                                "region": "Connecticut",
                                "country": "United States",
                                "locality": null
                            }
                        },
                        "iso3166_1Alpha2": "US"
                    }
                ],
                "elevationProfile": null,
                "id": "6c252216eb674e1da57852267d47aa35a8fe3d40"
            },
            "geometry": {
                "type": "Polygon",
                "coordinates": [
                    [
                        [
                            -72.92719840000002,
                            41.5806712,
                            79.7
                        ],
                        [
                            -72.92792240000003,
                            41.58003590000001,
                            92.8
                        ],
                        [
                            -72.92770209999998,
                            41.5799633,
                            92.2
                        ],
                        [
                            -72.9273344,
                            41.5800963,
                            86
                        ],
                        [
                            -72.9267869,
                            41.5802943,
                            81.7
                        ],
                        [
                            -72.92617729999998,
                            41.5805148,
                            73.9
                        ],
                        [
                            -72.92578139999996,
                            41.580658,
                            71.2
                        ],
                        [
                            -72.9254276,
                            41.580786,
                            70.6
                        ],
                        [
                            -72.9254226,
                            41.5811996,
                            60.5
                        ],
                        [
                            -72.9258041,
                            41.581241599999984,
                            60
                        ],
                        [
                            -72.92647509999998,
                            41.581061299999995,
                            70.8
                        ],
                        [
                            -72.92642380000002,
                            41.5809515,
                            69.6
                        ],
                        [
                            -72.92631229999998,
                            41.580866499999985,
                            67.8
                        ],
                        [
                            -72.926881,
                            41.5805696,
                            77.4
                        ],
                        [
                            -72.92719840000002,
                            41.5806712,
                            79.7
                        ]
                    ]
                ]
            }
        },
        {
            "type": "Feature",
            "properties": {
                "type": "run",
                "id": "70dec49161e1574b1b53b683287c4d3aac91f8ba",
                "uses": [
                    "downhill"
                ],
                "name": "Tester",
                "ref": null,
                "description": null,
                "difficulty": "advanced",
                "difficultyConvention": "north_america",
                "status": "operating",
                "oneway": true,
                "lit": true,
                "gladed": null,
                "patrolled": null,
                "grooming": "classic",
                "skiAreas": [
                    {
                        "type": "Feature",
                        "properties": {
                            "id": "c39bde5f3f06e67d7196e9f3afdbae89c6ca966b",
                            "name": "Mount Southington Ski Area",
                            "activities": [
                                "downhill"
                            ],
                            "type": "skiArea",
                            "status": "operating"
                        },
                        "geometry": {
                            "type": "Polygon",
                            "coordinates": [
                                [
                                    [
                                        -72.92468970000003,
                                        41.5798423
                                    ],
                                    [
                                        -72.92450740000002,
                                        41.579938700000014
                                    ],
                                    [
                                        -72.9242861,
                                        41.5810932
                                    ],
                                    [
                                        -72.9244027,
                                        41.5819682
                                    ],
                                    [
                                        -72.9249485,
                                        41.583889199999994
                                    ],
                                    [
                                        -72.9261317,
                                        41.5836311
                                    ],
                                    [
                                        -72.9288553,
                                        41.583437499999995
                                    ],
                                    [
                                        -72.933822,
                                        41.583041099999996
                                    ],
                                    [
                                        -72.93361240000003,
                                        41.5789296
                                    ],
                                    [
                                        -72.93182500000003,
                                        41.5790713
                                    ],
                                    [
                                        -72.928843,
                                        41.5793076
                                    ],
                                    [
                                        -72.92468970000003,
                                        41.5798423
                                    ]
                                ]
                            ]
                        }
                    }
                ],
                "elevationProfile": {
                    "heights": [
                        163.5,
                        161.6,
                        159.5,
                        155.5,
                        146.5,
                        139.9,
                        134.9,
                        130.9,
                        128.1,
                        128.1
                    ],
                    "resolution": 25
                },
                "sources": [
                    {
                        "type": "openstreetmap",
                        "id": "way/205404745"
                    }
                ],
                "websites": [],
                "wikidataID": null,
                "places": [
                    {
                        "iso3166_2": "US-CT",
                        "localized": {
                            "en": {
                                "region": "Connecticut",
                                "country": "United States",
                                "locality": null
                            }
                        },
                        "iso3166_1Alpha2": "US"
                    }
                ]
            },
            "geometry": {
                "type": "LineString",
                "coordinates": [
                    [
                        -72.93248129999998,
                        41.5808973,
                        163.5
                    ],
                    [
                        -72.9322724,
                        41.5808526,
                        161.7
                    ],
                    [
                        -72.93199940000004,
                        41.58071810000001,
                        160.2
                    ],
                    [
                        -72.93157020000002,
                        41.580621799999996,
                        153.2
                    ],
                    [
                        -72.93129130000003,
                        41.5805575,
                        144.2
                    ],
                    [
                        -72.93092650000003,
                        41.5804933,
                        137
                    ],
                    [
                        -72.93061530000003,
                        41.5804532,
                        132.5
                    ],
                    [
                        -72.93039,
                        41.5804372,
                        129.7
                    ],
                    [
                        -72.9301368,
                        41.580391,
                        128.1
                    ]
                ]
            }
        },
        {
            "type": "Feature",
            "properties": {
                "type": "run",
                "id": "3674420a8a80352f25fa74a3039fcddd6dbb789b",
                "uses": [
                    "downhill"
                ],
                "name": "Dom\u0027s Way",
                "ref": null,
                "description": null,
                "difficulty": "easy",
                "difficultyConvention": "north_america",
                "status": "operating",
                "oneway": true,
                "lit": true,
                "gladed": null,
                "patrolled": null,
                "grooming": "classic",
                "skiAreas": [
                    {
                        "type": "Feature",
                        "properties": {
                            "id": "c39bde5f3f06e67d7196e9f3afdbae89c6ca966b",
                            "name": "Mount Southington Ski Area",
                            "activities": [
                                "downhill"
                            ],
                            "type": "skiArea",
                            "status": "operating"
                        },
                        "geometry": {
                            "type": "Polygon",
                            "coordinates": [
                                [
                                    [
                                        -72.92468970000003,
                                        41.5798423
                                    ],
                                    [
                                        -72.92450740000002,
                                        41.579938700000014
                                    ],
                                    [
                                        -72.9242861,
                                        41.5810932
                                    ],
                                    [
                                        -72.9244027,
                                        41.5819682
                                    ],
                                    [
                                        -72.9249485,
                                        41.583889199999994
                                    ],
                                    [
                                        -72.9261317,
                                        41.5836311
                                    ],
                                    [
                                        -72.9288553,
                                        41.583437499999995
                                    ],
                                    [
                                        -72.933822,
                                        41.583041099999996
                                    ],
                                    [
                                        -72.93361240000003,
                                        41.5789296
                                    ],
                                    [
                                        -72.93182500000003,
                                        41.5790713
                                    ],
                                    [
                                        -72.928843,
                                        41.5793076
                                    ],
                                    [
                                        -72.92468970000003,
                                        41.5798423
                                    ]
                                ]
                            ]
                        }
                    }
                ],
                "elevationProfile": {
                    "heights": [
                        169.1,
                        164.7,
                        162.6,
                        161.5,
                        158.3,
                        154.9,
                        151.2,
                        146.3,
                        144.2,
                        140.7,
                        139.4,
                        137.5,
                        135.3,
                        132.1,
                        127.7,
                        128.1,
                        121.2,
                        115.7,
                        109.3,
                        105.2,
                        102.2,
                        100,
                        96.8,
                        94,
                        91.4,
                        89.7,
                        85.8,
                        83.9,
                        82.4,
                        80.8
                    ],
                    "resolution": 25
                },
                "sources": [
                    {
                        "type": "openstreetmap",
                        "id": "way/205404746"
                    }
                ],
                "websites": [],
                "wikidataID": null,
                "places": [
                    {
                        "iso3166_2": "US-CT",
                        "localized": {
                            "en": {
                                "region": "Connecticut",
                                "country": "United States",
                                "locality": null
                            }
                        },
                        "iso3166_1Alpha2": "US"
                    }
                ]
            },
            "geometry": {
                "type": "LineString",
                "coordinates": [
                    [
                        -72.93321790000003,
                        41.5808487,
                        169.1
                    ],
                    [
                        -72.9330362,
                        41.5804309,
                        162.7
                    ],
                    [
                        -72.9328577,
                        41.5799235,
                        157.2
                    ],
                    [
                        -72.9326324,
                        41.5796346,
                        152
                    ],
                    [
                        -72.93225690000003,
                        41.5794821,
                        145.7
                    ],
                    [
                        -72.93169900000004,
                        41.5794099,
                        140.5
                    ],
                    [
                        -72.93110890000003,
                        41.5794019,
                        137.4
                    ],
                    [
                        -72.93062610000003,
                        41.5794099,
                        133.4
                    ],
                    [
                        -72.93019690000003,
                        41.5794902,
                        127.6
                    ],
                    [
                        -72.92977849999997,
                        41.5794661,
                        124.9
                    ],
                    [
                        -72.9289738,
                        41.57945,
                        108.2
                    ],
                    [
                        -72.9287593,
                        41.5795945,
                        105
                    ],
                    [
                        -72.9285125,
                        41.5798914,
                        100.7
                    ],
                    [
                        -72.9282979,
                        41.580068,
                        97.4
                    ],
                    [
                        -72.9280619,
                        41.5803248,
                        93.6
                    ],
                    [
                        -72.9278221,
                        41.58052830000001,
                        90.6
                    ],
                    [
                        -72.9276327,
                        41.5807662,
                        87.4
                    ],
                    [
                        -72.92745350000003,
                        41.5809801,
                        84.2
                    ],
                    [
                        -72.9271828,
                        41.5814128,
                        80.8
                    ]
                ]
            }
        },
        {
            "type": "Feature",
            "properties": {
                "type": "run",
                "id": "aea0acc3f53b37e5715dd92e4739752723dc4f67",
                "uses": [
                    "downhill"
                ],
                "name": "Laurel",
                "ref": null,
                "description": null,
                "difficulty": "intermediate",
                "difficultyConvention": "north_america",
                "status": "operating",
                "oneway": true,
                "lit": true,
                "gladed": null,
                "patrolled": null,
                "grooming": "classic",
                "skiAreas": [
                    {
                        "type": "Feature",
                        "properties": {
                            "id": "c39bde5f3f06e67d7196e9f3afdbae89c6ca966b",
                            "name": "Mount Southington Ski Area",
                            "activities": [
                                "downhill"
                            ],
                            "type": "skiArea",
                            "status": "operating"
                        },
                        "geometry": {
                            "type": "Polygon",
                            "coordinates": [
                                [
                                    [
                                        -72.92468970000003,
                                        41.5798423
                                    ],
                                    [
                                        -72.92450740000002,
                                        41.579938700000014
                                    ],
                                    [
                                        -72.9242861,
                                        41.5810932
                                    ],
                                    [
                                        -72.9244027,
                                        41.5819682
                                    ],
                                    [
                                        -72.9249485,
                                        41.583889199999994
                                    ],
                                    [
                                        -72.9261317,
                                        41.5836311
                                    ],
                                    [
                                        -72.9288553,
                                        41.583437499999995
                                    ],
                                    [
                                        -72.933822,
                                        41.583041099999996
                                    ],
                                    [
                                        -72.93361240000003,
                                        41.5789296
                                    ],
                                    [
                                        -72.93182500000003,
                                        41.5790713
                                    ],
                                    [
                                        -72.928843,
                                        41.5793076
                                    ],
                                    [
                                        -72.92468970000003,
                                        41.5798423
                                    ]
                                ]
                            ]
                        }
                    }
                ],
                "elevationProfile": {
                    "heights": [
                        167.2,
                        167.1,
                        165.3,
                        165,
                        163.7,
                        157.4,
                        148.3,
                        141,
                        135.9,
                        133.1,
                        131.3,
                        129.3,
                        128,
                        127.9,
                        125,
                        121.2,
                        116.3,
                        111.5,
                        106.1,
                        100,
                        92.2,
                        87.6,
                        87.4
                    ],
                    "resolution": 25
                },
                "sources": [
                    {
                        "type": "openstreetmap",
                        "id": "way/205404747"
                    }
                ],
                "websites": [],
                "wikidataID": null,
                "places": [
                    {
                        "iso3166_2": "US-CT",
                        "localized": {
                            "en": {
                                "region": "Connecticut",
                                "country": "United States",
                                "locality": null
                            }
                        },
                        "iso3166_1Alpha2": "US"
                    }
                ]
            },
            "geometry": {
                "type": "LineString",
                "coordinates": [
                    [
                        -72.93307229999998,
                        41.5808292,
                        167.2
                    ],
                    [
                        -72.9329424,
                        41.5807661,
                        166.5
                    ],
                    [
                        -72.93269330000003,
                        41.5808213,
                        167.3
                    ],
                    [
                        -72.9325208,
                        41.5807472,
                        165.1
                    ],
                    [
                        -72.9323283,
                        41.5805234,
                        164.6
                    ],
                    [
                        -72.9321351,
                        41.580224099999995,
                        160.3
                    ],
                    [
                        -72.9317322,
                        41.580023499999996,
                        145.7
                    ],
                    [
                        -72.93121350000006,
                        41.57997930000001,
                        135.7
                    ],
                    [
                        -72.93072480000002,
                        41.580112100000015,
                        131.8
                    ],
                    [
                        -72.9301368,
                        41.580391,
                        128.1
                    ],
                    [
                        -72.92953440000002,
                        41.580447599999985,
                        124.6
                    ],
                    [
                        -72.9291315,
                        41.5805748,
                        118.3
                    ],
                    [
                        -72.9285189,
                        41.58082399999999,
                        106.5
                    ],
                    [
                        -72.9280855,
                        41.581017,
                        95
                    ],
                    [
                        -72.92778879999997,
                        41.5812585,
                        87.4
                    ]
                ]
            }
        },
        {
            "type": "Feature",
            "properties": {
                "type": "run",
                "id": "67859bcf39a329061bd31806d84ca347468125f3",
                "uses": [
                    "downhill"
                ],
                "name": "Steeplechase",
                "ref": null,
                "description": null,
                "difficulty": "intermediate",
                "difficultyConvention": "north_america",
                "status": "operating",
                "oneway": true,
                "lit": true,
                "gladed": null,
                "patrolled": null,
                "grooming": "classic",
                "skiAreas": [
                    {
                        "type": "Feature",
                        "properties": {
                            "id": "c39bde5f3f06e67d7196e9f3afdbae89c6ca966b",
                            "name": "Mount Southington Ski Area",
                            "activities": [
                                "downhill"
                            ],
                            "type": "skiArea",
                            "status": "operating"
                        },
                        "geometry": {
                            "type": "Polygon",
                            "coordinates": [
                                [
                                    [
                                        -72.92468970000003,
                                        41.5798423
                                    ],
                                    [
                                        -72.92450740000002,
                                        41.579938700000014
                                    ],
                                    [
                                        -72.9242861,
                                        41.5810932
                                    ],
                                    [
                                        -72.9244027,
                                        41.5819682
                                    ],
                                    [
                                        -72.9249485,
                                        41.583889199999994
                                    ],
                                    [
                                        -72.9261317,
                                        41.5836311
                                    ],
                                    [
                                        -72.9288553,
                                        41.583437499999995
                                    ],
                                    [
                                        -72.933822,
                                        41.583041099999996
                                    ],
                                    [
                                        -72.93361240000003,
                                        41.5789296
                                    ],
                                    [
                                        -72.93182500000003,
                                        41.5790713
                                    ],
                                    [
                                        -72.928843,
                                        41.5793076
                                    ],
                                    [
                                        -72.92468970000003,
                                        41.5798423
                                    ]
                                ]
                            ]
                        }
                    }
                ],
                "elevationProfile": {
                    "heights": [
                        173.1,
                        173.2,
                        170.1,
                        164.2,
                        159.2,
                        154.1,
                        151.5,
                        146.8,
                        142.6,
                        140.3,
                        139,
                        138.2,
                        136.2,
                        135.4
                    ],
                    "resolution": 25
                },
                "sources": [
                    {
                        "type": "openstreetmap",
                        "id": "way/205404748"
                    }
                ],
                "websites": [],
                "wikidataID": null,
                "places": [
                    {
                        "iso3166_2": "US-CT",
                        "localized": {
                            "en": {
                                "region": "Connecticut",
                                "country": "United States",
                                "locality": null
                            }
                        },
                        "iso3166_1Alpha2": "US"
                    }
                ]
            },
            "geometry": {
                "type": "LineString",
                "coordinates": [
                    [
                        -72.93290420000002,
                        41.581387099999986,
                        173.1
                    ],
                    [
                        -72.93276970000002,
                        41.5817699,
                        171
                    ],
                    [
                        -72.93268940000003,
                        41.5817966,
                        169.8
                    ],
                    [
                        -72.932096,
                        41.5819936,
                        158.2
                    ],
                    [
                        -72.93181940000004,
                        41.582096,
                        153.4
                    ],
                    [
                        -72.9315308,
                        41.58221810000001,
                        150.2
                    ],
                    [
                        -72.9312773,
                        41.58231230000002,
                        145.6
                    ],
                    [
                        -72.93111960000006,
                        41.582395300000016,
                        143
                    ],
                    [
                        -72.9308407,
                        41.58253180000001,
                        140.3
                    ],
                    [
                        -72.93059390000003,
                        41.58269230000001,
                        138.8
                    ],
                    [
                        -72.93025060000004,
                        41.5827966,
                        137.9
                    ],
                    [
                        -72.93001450000003,
                        41.58283270000001,
                        135.4
                    ]
                ]
            }
        },
        {
            "type": "Feature",
            "properties": {
                "type": "run",
                "id": "37187ac719df740c468dc0c7afe4824a718ad7d5",
                "uses": [
                    "downhill"
                ],
                "name": "Stardust",
                "ref": null,
                "description": null,
                "difficulty": "easy",
                "difficultyConvention": "north_america",
                "status": "operating",
                "oneway": true,
                "lit": true,
                "gladed": null,
                "patrolled": null,
                "grooming": "classic",
                "skiAreas": [
                    {
                        "type": "Feature",
                        "properties": {
                            "id": "c39bde5f3f06e67d7196e9f3afdbae89c6ca966b",
                            "name": "Mount Southington Ski Area",
                            "activities": [
                                "downhill"
                            ],
                            "type": "skiArea",
                            "status": "operating"
                        },
                        "geometry": {
                            "type": "Polygon",
                            "coordinates": [
                                [
                                    [
                                        -72.92468970000003,
                                        41.5798423
                                    ],
                                    [
                                        -72.92450740000002,
                                        41.579938700000014
                                    ],
                                    [
                                        -72.9242861,
                                        41.5810932
                                    ],
                                    [
                                        -72.9244027,
                                        41.5819682
                                    ],
                                    [
                                        -72.9249485,
                                        41.583889199999994
                                    ],
                                    [
                                        -72.9261317,
                                        41.5836311
                                    ],
                                    [
                                        -72.9288553,
                                        41.583437499999995
                                    ],
                                    [
                                        -72.933822,
                                        41.583041099999996
                                    ],
                                    [
                                        -72.93361240000003,
                                        41.5789296
                                    ],
                                    [
                                        -72.93182500000003,
                                        41.5790713
                                    ],
                                    [
                                        -72.928843,
                                        41.5793076
                                    ],
                                    [
                                        -72.92468970000003,
                                        41.5798423
                                    ]
                                ]
                            ]
                        }
                    }
                ],
                "elevationProfile": {
                    "heights": [
                        87.4,
                        83.7,
                        81.3,
                        76.3,
                        70.5,
                        65,
                        62.4,
                        61.7,
                        59.9,
                        59.5
                    ],
                    "resolution": 25
                },
                "sources": [
                    {
                        "type": "openstreetmap",
                        "id": "way/205404750"
                    }
                ],
                "websites": [],
                "wikidataID": null,
                "places": [
                    {
                        "iso3166_2": "US-CT",
                        "localized": {
                            "en": {
                                "region": "Connecticut",
                                "country": "United States",
                                "locality": null
                            }
                        },
                        "iso3166_1Alpha2": "US"
                    }
                ]
            },
            "geometry": {
                "type": "LineString",
                "coordinates": [
                    [
                        -72.92778879999997,
                        41.5812585,
                        87.4
                    ],
                    [
                        -72.92750400000003,
                        41.581328,
                        83.8
                    ],
                    [
                        -72.9271828,
                        41.5814128,
                        80.8
                    ],
                    [
                        -72.92713920000003,
                        41.581424299999995,
                        80.2
                    ],
                    [
                        -72.9266779,
                        41.581504499999994,
                        71.3
                    ],
                    [
                        -72.92617360000003,
                        41.5815527,
                        63
                    ],
                    [
                        -72.92578739999996,
                        41.5815768,
                        61.9
                    ],
                    [
                        -72.9253904,
                        41.5815768,
                        59.7
                    ],
                    [
                        -72.92534749999997,
                        41.5816008,
                        59.5
                    ]
                ]
            }
        },
        {
            "type": "Feature",
            "properties": {
                "type": "run",
                "id": "901a413a8adaef4fbbad51b3971b7cab7cc5f18f",
                "uses": [
                    "downhill"
                ],
                "name": "Turkey Turn",
                "ref": null,
                "description": null,
                "difficulty": "intermediate",
                "difficultyConvention": "north_america",
                "status": "operating",
                "oneway": true,
                "lit": true,
                "gladed": null,
                "patrolled": null,
                "grooming": "classic",
                "skiAreas": [
                    {
                        "type": "Feature",
                        "properties": {
                            "id": "c39bde5f3f06e67d7196e9f3afdbae89c6ca966b",
                            "name": "Mount Southington Ski Area",
                            "activities": [
                                "downhill"
                            ],
                            "type": "skiArea",
                            "status": "operating"
                        },
                        "geometry": {
                            "type": "Polygon",
                            "coordinates": [
                                [
                                    [
                                        -72.92468970000003,
                                        41.5798423
                                    ],
                                    [
                                        -72.92450740000002,
                                        41.579938700000014
                                    ],
                                    [
                                        -72.9242861,
                                        41.5810932
                                    ],
                                    [
                                        -72.9244027,
                                        41.5819682
                                    ],
                                    [
                                        -72.9249485,
                                        41.583889199999994
                                    ],
                                    [
                                        -72.9261317,
                                        41.5836311
                                    ],
                                    [
                                        -72.9288553,
                                        41.583437499999995
                                    ],
                                    [
                                        -72.933822,
                                        41.583041099999996
                                    ],
                                    [
                                        -72.93361240000003,
                                        41.5789296
                                    ],
                                    [
                                        -72.93182500000003,
                                        41.5790713
                                    ],
                                    [
                                        -72.928843,
                                        41.5793076
                                    ],
                                    [
                                        -72.92468970000003,
                                        41.5798423
                                    ]
                                ]
                            ]
                        }
                    }
                ],
                "elevationProfile": {
                    "heights": [
                        127.7,
                        123.5,
                        117.5,
                        115.5,
                        111.7,
                        111
                    ],
                    "resolution": 25
                },
                "sources": [
                    {
                        "type": "openstreetmap",
                        "id": "way/205404751"
                    }
                ],
                "websites": [],
                "wikidataID": null,
                "places": [
                    {
                        "iso3166_2": "US-CT",
                        "localized": {
                            "en": {
                                "region": "Connecticut",
                                "country": "United States",
                                "locality": null
                            }
                        },
                        "iso3166_1Alpha2": "US"
                    }
                ]
            },
            "geometry": {
                "type": "LineString",
                "coordinates": [
                    [
                        -72.92970799999998,
                        41.5819098,
                        127.7
                    ],
                    [
                        -72.92963900000002,
                        41.581849599999984,
                        126.2
                    ],
                    [
                        -72.92946740000002,
                        41.58165699999999,
                        121.5
                    ],
                    [
                        -72.92922060000004,
                        41.5815928,
                        116.6
                    ],
                    [
                        -72.92902470000003,
                        41.581641799999986,
                        115.5
                    ],
                    [
                        -72.92873549999997,
                        41.5818063,
                        111
                    ]
                ]
            }
        },
        {
            "type": "Feature",
            "properties": {
                "type": "run",
                "id": "58ab01b5775dc6383bbcdaf10f78550e407cd047",
                "uses": [
                    "downhill"
                ],
                "name": "Boomerang",
                "ref": null,
                "description": null,
                "difficulty": "intermediate",
                "difficultyConvention": "north_america",
                "status": "operating",
                "oneway": true,
                "lit": true,
                "gladed": null,
                "patrolled": null,
                "grooming": "classic",
                "skiAreas": [
                    {
                        "type": "Feature",
                        "properties": {
                            "id": "c39bde5f3f06e67d7196e9f3afdbae89c6ca966b",
                            "name": "Mount Southington Ski Area",
                            "activities": [
                                "downhill"
                            ],
                            "type": "skiArea",
                            "status": "operating"
                        },
                        "geometry": {
                            "type": "Polygon",
                            "coordinates": [
                                [
                                    [
                                        -72.92468970000003,
                                        41.5798423
                                    ],
                                    [
                                        -72.92450740000002,
                                        41.579938700000014
                                    ],
                                    [
                                        -72.9242861,
                                        41.5810932
                                    ],
                                    [
                                        -72.9244027,
                                        41.5819682
                                    ],
                                    [
                                        -72.9249485,
                                        41.583889199999994
                                    ],
                                    [
                                        -72.9261317,
                                        41.5836311
                                    ],
                                    [
                                        -72.9288553,
                                        41.583437499999995
                                    ],
                                    [
                                        -72.933822,
                                        41.583041099999996
                                    ],
                                    [
                                        -72.93361240000003,
                                        41.5789296
                                    ],
                                    [
                                        -72.93182500000003,
                                        41.5790713
                                    ],
                                    [
                                        -72.928843,
                                        41.5793076
                                    ],
                                    [
                                        -72.92468970000003,
                                        41.5798423
                                    ]
                                ]
                            ]
                        }
                    }
                ],
                "elevationProfile": {
                    "heights": [
                        172.1,
                        168,
                        162.5,
                        159.2,
                        157.8,
                        159.4,
                        156,
                        150.6,
                        145.7,
                        142.5,
                        139.8,
                        135.4,
                        134.4
                    ],
                    "resolution": 25
                },
                "sources": [
                    {
                        "type": "openstreetmap",
                        "id": "way/205404752"
                    }
                ],
                "websites": [],
                "wikidataID": null,
                "places": [
                    {
                        "iso3166_2": "US-CT",
                        "localized": {
                            "en": {
                                "region": "Connecticut",
                                "country": "United States",
                                "locality": null
                            }
                        },
                        "iso3166_1Alpha2": "US"
                    }
                ]
            },
            "geometry": {
                "type": "LineString",
                "coordinates": [
                    [
                        -72.93289,
                        41.581254799999996,
                        172.1
                    ],
                    [
                        -72.93272540000002,
                        41.581141,
                        169
                    ],
                    [
                        -72.9323456,
                        41.5812382,
                        162.2
                    ],
                    [
                        -72.93199770000003,
                        41.581411599999996,
                        158.1
                    ],
                    [
                        -72.931735,
                        41.58164939999999,
                        159.5
                    ],
                    [
                        -72.9314307,
                        41.5819219,
                        153.9
                    ],
                    [
                        -72.93120540000004,
                        41.5820342,
                        149
                    ],
                    [
                        -72.9305989,
                        41.5821477,
                        141.8
                    ],
                    [
                        -72.93022240000003,
                        41.5821497,
                        138
                    ],
                    [
                        -72.9300688,
                        41.58215840000001,
                        134.4
                    ]
                ]
            }
        },
        {
            "type": "Feature",
            "properties": {
                "type": "run",
                "id": "b0a1431690817df86628b2007b5d8496d3c85db1",
                "uses": [
                    "snow_park"
                ],
                "name": "Liftline",
                "ref": null,
                "description": null,
                "difficulty": "intermediate",
                "difficultyConvention": "north_america",
                "status": "operating",
                "oneway": true,
                "lit": true,
                "gladed": null,
                "patrolled": null,
                "grooming": "classic",
                "skiAreas": [
                    {
                        "type": "Feature",
                        "properties": {
                            "id": "c39bde5f3f06e67d7196e9f3afdbae89c6ca966b",
                            "name": "Mount Southington Ski Area",
                            "activities": [
                                "downhill"
                            ],
                            "type": "skiArea",
                            "status": "operating"
                        },
                        "geometry": {
                            "type": "Polygon",
                            "coordinates": [
                                [
                                    [
                                        -72.92468970000003,
                                        41.5798423
                                    ],
                                    [
                                        -72.92450740000002,
                                        41.579938700000014
                                    ],
                                    [
                                        -72.9242861,
                                        41.5810932
                                    ],
                                    [
                                        -72.9244027,
                                        41.5819682
                                    ],
                                    [
                                        -72.9249485,
                                        41.583889199999994
                                    ],
                                    [
                                        -72.9261317,
                                        41.5836311
                                    ],
                                    [
                                        -72.9288553,
                                        41.583437499999995
                                    ],
                                    [
                                        -72.933822,
                                        41.583041099999996
                                    ],
                                    [
                                        -72.93361240000003,
                                        41.5789296
                                    ],
                                    [
                                        -72.93182500000003,
                                        41.5790713
                                    ],
                                    [
                                        -72.928843,
                                        41.5793076
                                    ],
                                    [
                                        -72.92468970000003,
                                        41.5798423
                                    ]
                                ]
                            ]
                        }
                    }
                ],
                "elevationProfile": {
                    "heights": [
                        167.3,
                        162.7,
                        159.9,
                        157.4,
                        153.9,
                        150.7,
                        148.4,
                        142.9,
                        137.7,
                        133.3,
                        128.7,
                        124.7,
                        119.3,
                        114.3,
                        111.6,
                        105.9,
                        96.1,
                        87.6,
                        87.4
                    ],
                    "resolution": 25
                },
                "sources": [
                    {
                        "type": "openstreetmap",
                        "id": "way/205404754"
                    }
                ],
                "websites": [],
                "wikidataID": null,
                "places": [
                    {
                        "iso3166_2": "US-CT",
                        "localized": {
                            "en": {
                                "region": "Connecticut",
                                "country": "United States",
                                "locality": null
                            }
                        },
                        "iso3166_1Alpha2": "US"
                    }
                ]
            },
            "geometry": {
                "type": "LineString",
                "coordinates": [
                    [
                        -72.93269330000003,
                        41.5808213,
                        167.3
                    ],
                    [
                        -72.93248129999998,
                        41.5808973,
                        163.5
                    ],
                    [
                        -72.93233199999997,
                        41.58095080000001,
                        161.3
                    ],
                    [
                        -72.93194570000003,
                        41.581031,
                        158.6
                    ],
                    [
                        -72.93145220000002,
                        41.581015,
                        153
                    ],
                    [
                        -72.9309801,
                        41.5809668,
                        148.7
                    ],
                    [
                        -72.93048660000002,
                        41.58100699999999,
                        139.7
                    ],
                    [
                        -72.9300467,
                        41.5811916,
                        132.2
                    ],
                    [
                        -72.92956340000003,
                        41.5813781,
                        124.6
                    ],
                    [
                        -72.9291348,
                        41.581384199999995,
                        117.1
                    ],
                    [
                        -72.9287593,
                        41.58135210000001,
                        112.2
                    ],
                    [
                        -72.9283114,
                        41.581384599999986,
                        104.1
                    ],
                    [
                        -72.92778879999997,
                        41.5812585,
                        87.4
                    ]
                ]
            }
        },
        {
            "type": "Feature",
            "properties": {
                "type": "run",
                "id": "48408e0a7656c76d2a15ff655c6d24934b0a9e65",
                "uses": [
                    "downhill"
                ],
                "name": "Snowflake",
                "ref": null,
                "description": null,
                "difficulty": "novice",
                "difficultyConvention": "north_america",
                "status": "operating",
                "oneway": true,
                "lit": true,
                "gladed": null,
                "patrolled": null,
                "grooming": "classic",
                "skiAreas": [
                    {
                        "type": "Feature",
                        "properties": {
                            "id": "c39bde5f3f06e67d7196e9f3afdbae89c6ca966b",
                            "name": "Mount Southington Ski Area",
                            "activities": [
                                "downhill"
                            ],
                            "type": "skiArea",
                            "status": "operating"
                        },
                        "geometry": {
                            "type": "Polygon",
                            "coordinates": [
                                [
                                    [
                                        -72.92468970000003,
                                        41.5798423
                                    ],
                                    [
                                        -72.92450740000002,
                                        41.579938700000014
                                    ],
                                    [
                                        -72.9242861,
                                        41.5810932
                                    ],
                                    [
                                        -72.9244027,
                                        41.5819682
                                    ],
                                    [
                                        -72.9249485,
                                        41.583889199999994
                                    ],
                                    [
                                        -72.9261317,
                                        41.5836311
                                    ],
                                    [
                                        -72.9288553,
                                        41.583437499999995
                                    ],
                                    [
                                        -72.933822,
                                        41.583041099999996
                                    ],
                                    [
                                        -72.93361240000003,
                                        41.5789296
                                    ],
                                    [
                                        -72.93182500000003,
                                        41.5790713
                                    ],
                                    [
                                        -72.928843,
                                        41.5793076
                                    ],
                                    [
                                        -72.92468970000003,
                                        41.5798423
                                    ]
                                ]
                            ]
                        }
                    }
                ],
                "elevationProfile": {
                    "heights": [
                        79.7,
                        77.5,
                        73.6,
                        69.6
                    ],
                    "resolution": 25
                },
                "sources": [
                    {
                        "type": "openstreetmap",
                        "id": "way/205404755"
                    }
                ],
                "websites": [],
                "wikidataID": null,
                "places": [
                    {
                        "iso3166_2": "US-CT",
                        "localized": {
                            "en": {
                                "region": "Connecticut",
                                "country": "United States",
                                "locality": null
                            }
                        },
                        "iso3166_1Alpha2": "US"
                    }
                ]
            },
            "geometry": {
                "type": "LineString",
                "coordinates": [
                    [
                        -72.92719840000002,
                        41.5806712,
                        79.7
                    ],
                    [
                        -72.92700900000003,
                        41.580809099999996,
                        77.9
                    ],
                    [
                        -72.92673429999998,
                        41.580889799999994,
                        74.3
                    ],
                    [
                        -72.92642380000002,
                        41.5809515,
                        69.6
                    ]
                ]
            }
        },
        {
            "type": "Feature",
            "properties": {
                "type": "run",
                "id": "352031af3ca3d164dd64ea3e9012a83a2223b6c0",
                "uses": [
                    "downhill"
                ],
                "name": null,
                "ref": null,
                "description": null,
                "difficulty": "intermediate",
                "difficultyConvention": "north_america",
                "status": "operating",
                "oneway": true,
                "lit": true,
                "gladed": null,
                "patrolled": null,
                "grooming": "classic",
                "skiAreas": [
                    {
                        "type": "Feature",
                        "properties": {
                            "id": "c39bde5f3f06e67d7196e9f3afdbae89c6ca966b",
                            "name": "Mount Southington Ski Area",
                            "activities": [
                                "downhill"
                            ],
                            "type": "skiArea",
                            "status": "operating"
                        },
                        "geometry": {
                            "type": "Polygon",
                            "coordinates": [
                                [
                                    [
                                        -72.92468970000003,
                                        41.5798423
                                    ],
                                    [
                                        -72.92450740000002,
                                        41.579938700000014
                                    ],
                                    [
                                        -72.9242861,
                                        41.5810932
                                    ],
                                    [
                                        -72.9244027,
                                        41.5819682
                                    ],
                                    [
                                        -72.9249485,
                                        41.583889199999994
                                    ],
                                    [
                                        -72.9261317,
                                        41.5836311
                                    ],
                                    [
                                        -72.9288553,
                                        41.583437499999995
                                    ],
                                    [
                                        -72.933822,
                                        41.583041099999996
                                    ],
                                    [
                                        -72.93361240000003,
                                        41.5789296
                                    ],
                                    [
                                        -72.93182500000003,
                                        41.5790713
                                    ],
                                    [
                                        -72.928843,
                                        41.5793076
                                    ],
                                    [
                                        -72.92468970000003,
                                        41.5798423
                                    ]
                                ]
                            ]
                        }
                    }
                ],
                "elevationProfile": {
                    "heights": [
                        172.5,
                        171,
                        169.8
                    ],
                    "resolution": 25
                },
                "sources": [
                    {
                        "type": "openstreetmap",
                        "id": "way/418618568"
                    }
                ],
                "websites": [],
                "wikidataID": null,
                "places": [
                    {
                        "iso3166_2": "US-CT",
                        "localized": {
                            "en": {
                                "region": "Connecticut",
                                "country": "United States",
                                "locality": null
                            }
                        },
                        "iso3166_1Alpha2": "US"
                    }
                ]
            },
            "geometry": {
                "type": "LineString",
                "coordinates": [
                    [
                        -72.9328339,
                        41.5821042,
                        172.5
                    ],
                    [
                        -72.93283709999997,
                        41.581982599999996,
                        171.8
                    ],
                    [
                        -72.9327957,
                        41.581889699999984,
                        171.2
                    ],
                    [
                        -72.93268940000003,
                        41.5817966,
                        169.8
                    ]
                ]
            }
        }
    ]
}